[{"OBJECT_NAME":"GONETS-M 16","OBJECT_ID":"2019-096C","EPOCH":"2026-03-09T22:21:38.166336","MEAN_MOTION":12.42888621,"ECCENTRICITY":0.00121387,"INCLINATION":82.522,"RA_OF_ASC_NODE":145.6227,"ARG_OF_PERICENTER":78.4812,"MEAN_ANOMALY":281.763,"EPHEMERIS_TYPE":0,"CLASSIFICATION_TYPE":"U","NORAD_CAT_ID":44907,"ELEMENT_SET_NO":999,"REV_AT_EPOCH":28130,"BSTAR":0.00095207398,"MEAN_MOTION_DOT":1.42e-6,"MEAN_MOTION_DDOT":0},{"OBJECT_NAME":"DELTA 1 DEB","OBJECT_ID":"1973-086T","EPOCH":"2026-03-09T13:45:34.097184","MEAN_MOTION":12.35195081,"ECCENTRICITY":0.0056207,"INCLINATION":101.9121,"RA_OF_ASC_NODE":323.3908,"ARG_OF_PERICENTER":229.2157,"MEAN_ANOMALY":203.1868,"EPHEMERIS_TYPE":0,"CLASSIFICATION_TYPE":"U","NORAD_CAT_ID":7027,"ELEMENT_SET_NO":999,"REV_AT_EPOCH":35174,"BSTAR":-0.00053206,"MEAN_MOTION_DOT":-1.11e-6,"MEAN_MOTION_DDOT":0}]
